{
  "norad_id": 62958,
  "name": "STARLINK-32885",
  "history": [
    {
      "epoch": "2026-03-28T20:27:50.530752Z",
      "apogee_km": 476.3707774564864,
      "perigee_km": 474.0490005974216,
      "latitude_deg": -3.796026845780233e-05,
      "longitude_deg": 7.937062902121004,
      "height_km": 476.03865119758416,
      "semi_major_axis_km": 6853.346889026954,
      "eccentricity": 0.00016939,
      "inclination_deg": 53.1602,
      "raan_deg": 141.1648,
      "arg_perigee_deg": 86.6047,
      "mean_anomaly_deg": 273.5147,
      "mean_motion_rev_day": 15.30201735
    },
    {
      "epoch": "2026-03-29T04:18:06.482880Z",
      "apogee_km": 476.35827451976184,
      "perigee_km": 474.0021040700831,
      "latitude_deg": -4.217340378921678e-05,
      "longitude_deg": -111.46399295392993,
      "height_km": 476.1288024635878,
      "semi_major_axis_km": 6853.317189294922,
      "eccentricity": 0.0001719,
      "inclination_deg": 53.1591,
      "raan_deg": 139.6521,
      "arg_perigee_deg": 92.4934,
      "mean_anomaly_deg": 267.6263,
      "mean_motion_rev_day": 15.30211682
    },
    {
      "epoch": "2026-03-30T02:14:51.145728Z",
      "apogee_km": 476.2592731179748,
      "perigee_km": 474.0922556218811,
      "latitude_deg": 1.715551594353055e-05,
      "longitude_deg": -85.79872292758515,
      "height_km": 476.10943749237674,
      "semi_major_axis_km": 6853.312764369928,
      "eccentricity": 0.0001581,
      "inclination_deg": 53.1587,
      "raan_deg": 135.4047,
      "arg_perigee_deg": 91.9129,
      "mean_anomaly_deg": 268.2053,
      "mean_motion_rev_day": 15.30213164
    },
    {
      "epoch": "2026-03-30T02:14:51.146592Z",
      "apogee_km": 476.259067518592,
      "perigee_km": 474.0924612212648,
      "latitude_deg": 1.992229324528662e-05,
      "longitude_deg": -85.79872447597728,
      "height_km": 476.10943062958665,
      "semi_major_axis_km": 6853.312764369928,
      "eccentricity": 0.00015807,
      "inclination_deg": 53.1587,
      "raan_deg": 135.4047,
      "arg_perigee_deg": 91.9129,
      "mean_anomaly_deg": 268.2053,
      "mean_motion_rev_day": 15.30213164
    },
    {
      "epoch": "2026-03-30T11:39:10.479744Z",
      "apogee_km": 476.00227444067514,
      "perigee_km": 474.40503486770285,
      "latitude_deg": -1.7802203622119457e-05,
      "longitude_deg": 130.91272823493134,
      "height_km": 476.1005601201616,
      "semi_major_axis_km": 6853.340654654189,
      "eccentricity": 0.00011653,
      "inclination_deg": 53.1574,
      "raan_deg": 133.583,
      "arg_perigee_deg": 89.9256,
      "mean_anomaly_deg": 270.1878,
      "mean_motion_rev_day": 15.30203823
    },
    {
      "epoch": "2026-03-30T19:29:26.460384Z",
      "apogee_km": 476.14354235736937,
      "perigee_km": 474.2416063338969,
      "latitude_deg": 2.3269002907472362e-05,
      "longitude_deg": 11.506387339574019,
      "height_km": 476.0897661050252,
      "semi_major_axis_km": 6853.329574345633,
      "eccentricity": 0.00013876,
      "inclination_deg": 53.1585,
      "raan_deg": 132.0651,
      "arg_perigee_deg": 89.9663,
      "mean_anomaly_deg": 270.1497,
      "mean_motion_rev_day": 15.30207534
    },
    {
      "epoch": "2026-03-31T12:44:01.564224Z",
      "apogee_km": 475.8629182190025,
      "perigee_km": 474.54625423345806,
      "latitude_deg": 1.0152829733162955e-05,
      "longitude_deg": 108.81696421595757,
      "height_km": 475.9303821750072,
      "semi_major_axis_km": 6853.34158622623,
      "eccentricity": 9.606e-05,
      "inclination_deg": 53.1572,
      "raan_deg": 128.7301,
      "arg_perigee_deg": 74.8148,
      "mean_anomaly_deg": 285.2959,
      "mean_motion_rev_day": 15.30203511
    },
    {
      "epoch": "2026-04-01T12:14:49.508736Z",
      "apogee_km": 475.9022596449486,
      "perigee_km": 474.490472971489,
      "latitude_deg": 1.3465960499180487e-05,
      "longitude_deg": 110.60004151910385,
      "height_km": 475.94055117166903,
      "semi_major_axis_km": 6853.3333663082185,
      "eccentricity": 0.000103,
      "inclination_deg": 53.157,
      "raan_deg": 124.1786,
      "arg_perigee_deg": 77.4047,
      "mean_anomaly_deg": 282.7069,
      "mean_motion_rev_day": 15.30206264
    },
    {
      "epoch": "2026-04-02T11:45:37.191456Z",
      "apogee_km": 476.00274900677505,
      "perigee_km": 474.34726295860855,
      "latitude_deg": -2.2794901698960153e-06,
      "longitude_deg": 112.38489806541693,
      "height_km": 476.0989621315537,
      "semi_major_axis_km": 6853.3120059826915,
      "eccentricity": 0.00012078,
      "inclination_deg": 53.157,
      "raan_deg": 119.6278,
      "arg_perigee_deg": 91.8078,
      "mean_anomaly_deg": 268.3061,
      "mean_motion_rev_day": 15.30213418
    },
    {
      "epoch": "2026-04-03T11:16:25.214592Z",
      "apogee_km": 476.1869890644457,
      "perigee_km": 474.2850409853154,
      "latitude_deg": -1.967981327710097e-05,
      "longitude_deg": 114.16663047044895,
      "height_km": 475.70209175769224,
      "semi_major_axis_km": 6853.37301502488,
      "eccentricity": 0.00013876,
      "inclination_deg": 53.1577,
      "raan_deg": 115.0753,
      "arg_perigee_deg": 62.9951,
      "mean_anomaly_deg": 297.1191,
      "mean_motion_rev_day": 15.30192985
    },
    {
      "epoch": "2026-04-04T10:47:13.723296Z",
      "apogee_km": 476.10144824654617,
      "perigee_km": 474.31135495004855,
      "latitude_deg": -1.4431907053881577e-05,
      "longitude_deg": 115.94855022380173,
      "height_km": 475.9936237058183,
      "semi_major_axis_km": 6853.343401598297,
      "eccentricity": 0.0001306,
      "inclination_deg": 53.1583,
      "raan_deg": 110.525,
      "arg_perigee_deg": 82.8993,
      "mean_anomaly_deg": 277.2156,
      "mean_motion_rev_day": 15.30202903
    },
    {
      "epoch": "2026-04-05T07:09:55.115712Z",
      "apogee_km": 476.2198275498804,
      "perigee_km": 474.2076837680188,
      "latitude_deg": -4.526150279793623e-05,
      "longitude_deg": 165.493956315655,
      "height_km": 476.046509927232,
      "semi_major_axis_km": 6853.350755658949,
      "eccentricity": 0.0001468,
      "inclination_deg": 53.1592,
      "raan_deg": 106.5798,
      "arg_perigee_deg": 86.2972,
      "mean_anomaly_deg": 273.8196,
      "mean_motion_rev_day": 15.3020044
    },
    {
      "epoch": "2026-04-05T18:08:17.546496Z",
      "apogee_km": 476.21860584827846,
      "perigee_km": 474.16260756626525,
      "latitude_deg": -4.146001661675036e-05,
      "longitude_deg": -1.6746441560310303,
      "height_km": 476.0576223967062,
      "semi_major_axis_km": 6853.327606707271,
      "eccentricity": 0.00015,
      "inclination_deg": 53.1591,
      "raan_deg": 104.4553,
      "arg_perigee_deg": 88.2912,
      "mean_anomaly_deg": 271.826,
      "mean_motion_rev_day": 15.30208193
    },
    {
      "epoch": "2026-04-06T05:06:39.735360Z",
      "apogee_km": 476.102641125477,
      "perigee_km": 474.2781483064564,
      "latitude_deg": -1.1349948412441017e-05,
      "longitude_deg": -168.83921441304744,
      "height_km": 475.8556711653751,
      "semi_major_axis_km": 6853.327394715967,
      "eccentricity": 0.00013311,
      "inclination_deg": 53.1594,
      "raan_deg": 102.3338,
      "arg_perigee_deg": 75.2201,
      "mean_anomaly_deg": 284.8947,
      "mean_motion_rev_day": 15.30208264
    },
    {
      "epoch": "2026-04-07T06:11:30.824160Z",
      "apogee_km": 476.8217644068327,
      "perigee_km": 473.4311808363873,
      "latitude_deg": 5.0689267008318215e-05,
      "longitude_deg": 169.06262486232487,
      "height_km": 475.7479899241982,
      "semi_major_axis_km": 6853.263472621609,
      "eccentricity": 0.00024737,
      "inclination_deg": 53.1599,
      "raan_deg": 97.4785,
      "arg_perigee_deg": 80.6695,
      "mean_anomaly_deg": 279.4586,
      "mean_motion_rev_day": 15.30229673
    },
    {
      "epoch": "2026-04-07T17:09:53.231616Z",
      "apogee_km": 476.0556622496633,
      "perigee_km": 474.3546627249343,
      "latitude_deg": -3.464734746796355e-05,
      "longitude_deg": 1.8937549223353303,
      "height_km": 475.98189681314767,
      "semi_major_axis_km": 6853.342162487298,
      "eccentricity": 0.0001241,
      "inclination_deg": 53.1589,
      "raan_deg": 95.3537,
      "arg_perigee_deg": 81.8012,
      "mean_anomaly_deg": 278.3129,
      "mean_motion_rev_day": 15.30203318
    },
    {
      "epoch": "2026-04-08T08:50:25.110816Z",
      "apogee_km": 475.92264010460894,
      "perigee_km": 474.4749414521648,
      "latitude_deg": -3.135218769407336e-05,
      "longitude_deg": 123.08545459198994,
      "height_km": 475.9058107012264,
      "semi_major_axis_km": 6853.335790778387,
      "eccentricity": 0.00010562,
      "inclination_deg": 53.1591,
      "raan_deg": 92.322,
      "arg_perigee_deg": 74.675,
      "mean_anomaly_deg": 285.4367,
      "mean_motion_rev_day": 15.30205452
    }
  ]
}